[{"OBJECT_NAME":"HYDROGNSS-2","OBJECT_ID":"2025-276DB","EPOCH":"2026-03-09T23:16:13.603296","MEAN_MOTION":15.17394407,"ECCENTRICITY":0.00029502,"INCLINATION":97.4274,"RA_OF_ASC_NODE":144.1742,"ARG_OF_PERICENTER":240.4199,"MEAN_ANOMALY":119.6741,"EPHEMERIS_TYPE":0,"CLASSIFICATION_TYPE":"U","NORAD_CAT_ID":66763,"ELEMENT_SET_NO":999,"REV_AT_EPOCH":1535,"BSTAR":0.00027739627,"MEAN_MOTION_DOT":5.478e-5,"MEAN_MOTION_DDOT":0},{"OBJECT_NAME":"PEGASUS DEB","OBJECT_ID":"1994-029ACN","EPOCH":"2026-03-09T14:54:52.276896","MEAN_MOTION":14.88956192,"ECCENTRICITY":0.0150975,"INCLINATION":81.572,"RA_OF_ASC_NODE":286.6806,"ARG_OF_PERICENTER":308.5515,"MEAN_ANOMALY":50.2248,"EPHEMERIS_TYPE":0,"CLASSIFICATION_TYPE":"U","NORAD_CAT_ID":24980,"ELEMENT_SET_NO":999,"REV_AT_EPOCH":53329,"BSTAR":0.0016647,"MEAN_MOTION_DOT":0.00019427,"MEAN_MOTION_DDOT":0}]
